QIANFAN-35              
1 61568U 24185S   26064.17057233  .00001082  00000+0  42961-3 0  9997
2 61568  88.9745  67.1842 0007523  33.2834 326.8832 14.28117524 81946
QIANFAN-36              
1 61569U 24185T   26064.18969707  .00000129  00000+0  16815-3 0  9997
2 61569  88.9717  72.4396 0006968 147.3587 212.7999 13.55613623 79093
QIANFAN-37              
1 62238U 24232B   26064.12938980  .00000080  00000+0  10589-3 0  9995
2 62238  89.0051  33.0069 0001700  97.1080 263.0264 13.51005225110290
QIANFAN-38              
1 62239U 24232C   26064.15402689  .00000079  00000+0  10368-3 0  9994
2 62239  89.0058  32.9258 0013467 324.7768  35.2491 13.51003794110358
QIANFAN-39              
1 62240U 24232D   26064.18922638  .00000485  00000+0  19913-3 0  9996
2 62240  89.0057  27.8767 0016508 160.3596 199.8236 14.25435868113135
QIANFAN-40              
1 62241U 24232E   26064.18694205  .00000073  00000+0  94405-4 0  9996
2 62241  89.0086  32.5302 0012778 333.7562  26.2940 13.51003003110727
QIANFAN-41              
1 62242U 24232F   26064.19521382  .00000077  00000+0  10082-3 0  9995
2 62242  89.0056  32.8718 0012759 320.7272  39.2952 13.51004694110388
QIANFAN-42              
1 62243U 24232G   26064.16945310  .00000451  00000+0  18818-3 0  9995
2 62243  89.0055  27.9383 0015123 165.8886 194.2732 14.24529757113102
QIANFAN-43              
1 62244U 24232H   26064.19105741  .00000081  00000+0  10668-3 0  9999
2 62244  89.0061  32.9412 0014430 325.5482  34.4733 13.51004731 78998
QIANFAN-44              
1 62245U 24232J   26064.17872201  .00000069  00000+0  89001-4 0  9994
2 62245  89.0059  32.7519 0012573 323.4019  36.6272 13.51002645110464
QIANFAN-45              
1 62246U 24232K   26064.14583248  .00000070  00000+0  90226-4 0  9995
2 62246  89.0063  32.9045 0013217 322.7005  37.3227 13.51000321110387
QIANFAN-46              
1 62247U 24232L   26064.17047879  .00000086  00000+0  11463-3 0  9996
2 62247  89.0058  32.9677 0013451 328.5332  31.5013 13.51003283110345
QIANFAN-47              
1 62248U 24232M   26064.17459045  .00000075  00000+0  98003-4 0  9993
2 62248  89.0054  32.8970 0013844 327.3601  32.6693 13.51003181110375
QIANFAN-48              
1 62249U 24232N   26064.13756713  .00000058  00000+0  71565-4 0  9997
2 62249  89.0058  32.9058 0016180 329.1986  30.8214 13.51003294110374
QIANFAN-49              
1 62250U 24232P   26064.19929001  .00000063  00000+0  79789-4 0  9999
2 62250  89.0057  32.9115 0013089 324.6332  35.3950 13.51002419 78973
QIANFAN-50              
1 62251U 24232Q   26064.14990262  .00000073  00000+0  94606-4 0  9998
2 62251  89.0063  32.9290 0014779 325.4043  34.6145 13.51003384 78992
QIANFAN-51              
1 62252U 24232R   26064.20753945  .00000064  00000+0  80556-4 0  9990
2 62252  89.0057  32.9121 0012413 330.5723  29.4728 13.51004198 78997
