[{"OBJECT_NAME":"QIANFAN-35","OBJECT_ID":"2024-185S","EPOCH":"2026-03-05T04:05:37.449312","MEAN_MOTION":14.28117524,"ECCENTRICITY":0.0007523,"INCLINATION":88.9745,"RA_OF_ASC_NODE":67.1842,"ARG_OF_PERICENTER":33.2834,"MEAN_ANOMALY":326.8832,"EPHEMERIS_TYPE":0,"CLASSIFICATION_TYPE":"U","NORAD_CAT_ID":61568,"ELEMENT_SET_NO":999,"REV_AT_EPOCH":8194,"BSTAR":0.00042961,"MEAN_MOTION_DOT":1.082e-5,"MEAN_MOTION_DDOT":0},{"OBJECT_NAME":"QIANFAN-36","OBJECT_ID":"2024-185T","EPOCH":"2026-03-05T04:33:09.826848","MEAN_MOTION":13.55613623,"ECCENTRICITY":0.0006968,"INCLINATION":88.9717,"RA_OF_ASC_NODE":72.4396,"ARG_OF_PERICENTER":147.3587,"MEAN_ANOMALY":212.7999,"EPHEMERIS_TYPE":0,"CLASSIFICATION_TYPE":"U","NORAD_CAT_ID":61569,"ELEMENT_SET_NO":999,"REV_AT_EPOCH":7909,"BSTAR":0.00016815,"MEAN_MOTION_DOT":1.29e-6,"MEAN_MOTION_DDOT":0},{"OBJECT_NAME":"QIANFAN-37","OBJECT_ID":"2024-232B","EPOCH":"2026-03-05T03:06:19.278720","MEAN_MOTION":13.51005225,"ECCENTRICITY":0.00017,"INCLINATION":89.0051,"RA_OF_ASC_NODE":33.0069,"ARG_OF_PERICENTER":97.108,"MEAN_ANOMALY":263.0264,"EPHEMERIS_TYPE":0,"CLASSIFICATION_TYPE":"U","NORAD_CAT_ID":62238,"ELEMENT_SET_NO":999,"REV_AT_EPOCH":11029,"BSTAR":0.00010589,"MEAN_MOTION_DOT":8.0e-7,"MEAN_MOTION_DDOT":0},{"OBJECT_NAME":"QIANFAN-38","OBJECT_ID":"2024-232C","EPOCH":"2026-03-05T03:41:47.923296","MEAN_MOTION":13.51003794,"ECCENTRICITY":0.0013467,"INCLINATION":89.0058,"RA_OF_ASC_NODE":32.9258,"ARG_OF_PERICENTER":324.7768,"MEAN_ANOMALY":35.2491,"EPHEMERIS_TYPE":0,"CLASSIFICATION_TYPE":"U","NORAD_CAT_ID":62239,"ELEMENT_SET_NO":999,"REV_AT_EPOCH":11035,"BSTAR":0.00010368,"MEAN_MOTION_DOT":7.9e-7,"MEAN_MOTION_DDOT":0},{"OBJECT_NAME":"QIANFAN-39","OBJECT_ID":"2024-232D","EPOCH":"2026-03-05T04:32:29.159232","MEAN_MOTION":14.25435868,"ECCENTRICITY":0.0016508,"INCLINATION":89.0057,"RA_OF_ASC_NODE":27.8767,"ARG_OF_PERICENTER":160.3596,"MEAN_ANOMALY":199.8236,"EPHEMERIS_TYPE":0,"CLASSIFICATION_TYPE":"U","NORAD_CAT_ID":62240,"ELEMENT_SET_NO":999,"REV_AT_EPOCH":11313,"BSTAR":0.00019913,"MEAN_MOTION_DOT":4.85e-6,"MEAN_MOTION_DDOT":0},{"OBJECT_NAME":"QIANFAN-40","OBJECT_ID":"2024-232E","EPOCH":"2026-03-05T04:29:11.793120","MEAN_MOTION":13.51003003,"ECCENTRICITY":0.0012778,"INCLINATION":89.0086,"RA_OF_ASC_NODE":32.5302,"ARG_OF_PERICENTER":333.7562,"MEAN_ANOMALY":26.294,"EPHEMERIS_TYPE":0,"CLASSIFICATION_TYPE":"U","NORAD_CAT_ID":62241,"ELEMENT_SET_NO":999,"REV_AT_EPOCH":11072,"BSTAR":9.4405e-5,"MEAN_MOTION_DOT":7.3e-7,"MEAN_MOTION_DDOT":0},{"OBJECT_NAME":"QIANFAN-41","OBJECT_ID":"2024-232F","EPOCH":"2026-03-05T04:41:06.474048","MEAN_MOTION":13.51004694,"ECCENTRICITY":0.0012759,"INCLINATION":89.0056,"RA_OF_ASC_NODE":32.8718,"ARG_OF_PERICENTER":320.7272,"MEAN_ANOMALY":39.2952,"EPHEMERIS_TYPE":0,"CLASSIFICATION_TYPE":"U","NORAD_CAT_ID":62242,"ELEMENT_SET_NO":999,"REV_AT_EPOCH":11038,"BSTAR":0.00010082,"MEAN_MOTION_DOT":7.7e-7,"MEAN_MOTION_DDOT":0},{"OBJECT_NAME":"QIANFAN-42","OBJECT_ID":"2024-232G","EPOCH":"2026-03-05T04:04:00.747840","MEAN_MOTION":14.24529757,"ECCENTRICITY":0.0015123,"INCLINATION":89.0055,"RA_OF_ASC_NODE":27.9383,"ARG_OF_PERICENTER":165.8886,"MEAN_ANOMALY":194.2732,"EPHEMERIS_TYPE":0,"CLASSIFICATION_TYPE":"U","NORAD_CAT_ID":62243,"ELEMENT_SET_NO":999,"REV_AT_EPOCH":11310,"BSTAR":0.00018818,"MEAN_MOTION_DOT":4.51e-6,"MEAN_MOTION_DDOT":0},{"OBJECT_NAME":"QIANFAN-43","OBJECT_ID":"2024-232H","EPOCH":"2026-03-05T04:35:07.360224","MEAN_MOTION":13.51004731,"ECCENTRICITY":0.001443,"INCLINATION":89.0061,"RA_OF_ASC_NODE":32.9412,"ARG_OF_PERICENTER":325.5482,"MEAN_ANOMALY":34.4733,"EPHEMERIS_TYPE":0,"CLASSIFICATION_TYPE":"U","NORAD_CAT_ID":62244,"ELEMENT_SET_NO":999,"REV_AT_EPOCH":7899,"BSTAR":0.00010668,"MEAN_MOTION_DOT":8.1e-7,"MEAN_MOTION_DDOT":0},{"OBJECT_NAME":"QIANFAN-44","OBJECT_ID":"2024-232J","EPOCH":"2026-03-05T04:17:21.581664","MEAN_MOTION":13.51002645,"ECCENTRICITY":0.0012573,"INCLINATION":89.0059,"RA_OF_ASC_NODE":32.7519,"ARG_OF_PERICENTER":323.4019,"MEAN_ANOMALY":36.6272,"EPHEMERIS_TYPE":0,"CLASSIFICATION_TYPE":"U","NORAD_CAT_ID":62245,"ELEMENT_SET_NO":999,"REV_AT_EPOCH":11046,"BSTAR":8.9001e-5,"MEAN_MOTION_DOT":6.9e-7,"MEAN_MOTION_DDOT":0},{"OBJECT_NAME":"QIANFAN-45","OBJECT_ID":"2024-232K","EPOCH":"2026-03-05T03:29:59.926272","MEAN_MOTION":13.51000321,"ECCENTRICITY":0.0013217,"INCLINATION":89.0063,"RA_OF_ASC_NODE":32.9045,"ARG_OF_PERICENTER":322.7005,"MEAN_ANOMALY":37.3227,"EPHEMERIS_TYPE":0,"CLASSIFICATION_TYPE":"U","NORAD_CAT_ID":62246,"ELEMENT_SET_NO":999,"REV_AT_EPOCH":11038,"BSTAR":9.0226e-5,"MEAN_MOTION_DOT":7.0e-7,"MEAN_MOTION_DDOT":0},{"OBJECT_NAME":"QIANFAN-46","OBJECT_ID":"2024-232L","EPOCH":"2026-03-05T04:05:29.367456","MEAN_MOTION":13.51003283,"ECCENTRICITY":0.0013451,"INCLINATION":89.0058,"RA_OF_ASC_NODE":32.9677,"ARG_OF_PERICENTER":328.5332,"MEAN_ANOMALY":31.5013,"EPHEMERIS_TYPE":0,"CLASSIFICATION_TYPE":"U","NORAD_CAT_ID":62247,"ELEMENT_SET_NO":999,"REV_AT_EPOCH":11034,"BSTAR":0.00011463,"MEAN_MOTION_DOT":8.6e-7,"MEAN_MOTION_DDOT":0},{"OBJECT_NAME":"QIANFAN-47","OBJECT_ID":"2024-232M","EPOCH":"2026-03-05T04:11:24.614880","MEAN_MOTION":13.51003181,"ECCENTRICITY":0.0013844,"INCLINATION":89.0054,"RA_OF_ASC_NODE":32.897,"ARG_OF_PERICENTER":327.3601,"MEAN_ANOMALY":32.6693,"EPHEMERIS_TYPE":0,"CLASSIFICATION_TYPE":"U","NORAD_CAT_ID":62248,"ELEMENT_SET_NO":999,"REV_AT_EPOCH":11037,"BSTAR":9.8003e-5,"MEAN_MOTION_DOT":7.5e-7,"MEAN_MOTION_DDOT":0},{"OBJECT_NAME":"QIANFAN-48","OBJECT_ID":"2024-232N","EPOCH":"2026-03-05T03:18:05.800032","MEAN_MOTION":13.51003294,"ECCENTRICITY":0.001618,"INCLINATION":89.0058,"RA_OF_ASC_NODE":32.9058,"ARG_OF_PERICENTER":329.1986,"MEAN_ANOMALY":30.8214,"EPHEMERIS_TYPE":0,"CLASSIFICATION_TYPE":"U","NORAD_CAT_ID":62249,"ELEMENT_SET_NO":999,"REV_AT_EPOCH":11037,"BSTAR":7.1565e-5,"MEAN_MOTION_DOT":5.8e-7,"MEAN_MOTION_DDOT":0},{"OBJECT_NAME":"QIANFAN-49","OBJECT_ID":"2024-232P","EPOCH":"2026-03-05T04:46:58.656864","MEAN_MOTION":13.51002419,"ECCENTRICITY":0.0013089,"INCLINATION":89.0057,"RA_OF_ASC_NODE":32.9115,"ARG_OF_PERICENTER":324.6332,"MEAN_ANOMALY":35.395,"EPHEMERIS_TYPE":0,"CLASSIFICATION_TYPE":"U","NORAD_CAT_ID":62250,"ELEMENT_SET_NO":999,"REV_AT_EPOCH":7897,"BSTAR":7.9789e-5,"MEAN_MOTION_DOT":6.3e-7,"MEAN_MOTION_DDOT":0},{"OBJECT_NAME":"QIANFAN-50","OBJECT_ID":"2024-232Q","EPOCH":"2026-03-05T03:35:51.586368","MEAN_MOTION":13.51003384,"ECCENTRICITY":0.0014779,"INCLINATION":89.0063,"RA_OF_ASC_NODE":32.929,"ARG_OF_PERICENTER":325.4043,"MEAN_ANOMALY":34.6145,"EPHEMERIS_TYPE":0,"CLASSIFICATION_TYPE":"U","NORAD_CAT_ID":62251,"ELEMENT_SET_NO":999,"REV_AT_EPOCH":7899,"BSTAR":9.4606e-5,"MEAN_MOTION_DOT":7.3e-7,"MEAN_MOTION_DDOT":0},{"OBJECT_NAME":"QIANFAN-51","OBJECT_ID":"2024-232R","EPOCH":"2026-03-05T04:58:51.408480","MEAN_MOTION":13.51004198,"ECCENTRICITY":0.0012413,"INCLINATION":89.0057,"RA_OF_ASC_NODE":32.9121,"ARG_OF_PERICENTER":330.5723,"MEAN_ANOMALY":29.4728,"EPHEMERIS_TYPE":0,"CLASSIFICATION_TYPE":"U","NORAD_CAT_ID":62252,"ELEMENT_SET_NO":999,"REV_AT_EPOCH":7899,"BSTAR":8.0556e-5,"MEAN_MOTION_DOT":6.4e-7,"MEAN_MOTION_DDOT":0}]
